[{"OBJECT_NAME":"NIMIQ 6","OBJECT_ID":"2012-026A","EPOCH":"2026-03-28T14:21:07.798752","MEAN_MOTION":1.00272292,"ECCENTRICITY":0.0002547,"INCLINATION":0.0222,"RA_OF_ASC_NODE":91.0685,"ARG_OF_PERICENTER":266.2408,"MEAN_ANOMALY":312.8672,"EPHEMERIS_TYPE":0,"CLASSIFICATION_TYPE":"U","NORAD_CAT_ID":38342,"ELEMENT_SET_NO":999,"REV_AT_EPOCH":4960,"BSTAR":0,"MEAN_MOTION_DOT":-1.93e-6,"MEAN_MOTION_DDOT":0},{"OBJECT_NAME":"ZHONGXING-2A","OBJECT_ID":"2012-028A","EPOCH":"2026-03-28T20:35:38.841216","MEAN_MOTION":1.00269197,"ECCENTRICITY":6.54e-5,"INCLINATION":1.2467,"RA_OF_ASC_NODE":84.9226,"ARG_OF_PERICENTER":296.7553,"MEAN_ANOMALY":211.7379,"EPHEMERIS_TYPE":0,"CLASSIFICATION_TYPE":"U","NORAD_CAT_ID":38352,"ELEMENT_SET_NO":999,"REV_AT_EPOCH":5049,"BSTAR":0,"MEAN_MOTION_DOT":-3.11e-6,"MEAN_MOTION_DDOT":0},{"OBJECT_NAME":"INTELSAT 19 (IS-19)","OBJECT_ID":"2012-030A","EPOCH":"2026-03-28T18:31:38.570016","MEAN_MOTION":1.00269418,"ECCENTRICITY":0.000309,"INCLINATION":0.0228,"RA_OF_ASC_NODE":179.3557,"ARG_OF_PERICENTER":198.9521,"MEAN_ANOMALY":251.7976,"EPHEMERIS_TYPE":0,"CLASSIFICATION_TYPE":"U","NORAD_CAT_ID":38356,"ELEMENT_SET_NO":999,"REV_AT_EPOCH":4964,"BSTAR":0,"MEAN_MOTION_DOT":0,"MEAN_MOTION_DDOT":0},{"OBJECT_NAME":"ECHOSTAR 17","OBJECT_ID":"2012-035A","EPOCH":"2026-03-28T14:16:30.741600","MEAN_MOTION":1.00271184,"ECCENTRICITY":0.0002032,"INCLINATION":0.0188,"RA_OF_ASC_NODE":155.0439,"ARG_OF_PERICENTER":213.0951,"MEAN_ANOMALY":284.8859,"EPHEMERIS_TYPE":0,"CLASSIFICATION_TYPE":"U","NORAD_CAT_ID":38551,"ELEMENT_SET_NO":999,"REV_AT_EPOCH":5025,"BSTAR":0,"MEAN_MOTION_DOT":-9.5e-7,"MEAN_MOTION_DDOT":0},{"OBJECT_NAME":"METEOSAT-10 (MSG-3)","OBJECT_ID":"2012-035B","EPOCH":"2026-03-28T18:12:30.612096","MEAN_MOTION":1.00271341,"ECCENTRICITY":0.0002458,"INCLINATION":4.4824,"RA_OF_ASC_NODE":61.3529,"ARG_OF_PERICENTER":284.808,"MEAN_ANOMALY":113.1895,"EPHEMERIS_TYPE":0,"CLASSIFICATION_TYPE":"U","NORAD_CAT_ID":38552,"ELEMENT_SET_NO":999,"REV_AT_EPOCH":5005,"BSTAR":0,"MEAN_MOTION_DOT":-2.3e-7,"MEAN_MOTION_DDOT":0},{"OBJECT_NAME":"SES-5","OBJECT_ID":"2012-036A","EPOCH":"2026-03-28T20:21:38.559744","MEAN_MOTION":1.00271932,"ECCENTRICITY":0.0002108,"INCLINATION":0.0628,"RA_OF_ASC_NODE":304.7555,"ARG_OF_PERICENTER":56.5266,"MEAN_ANOMALY":135.3475,"EPHEMERIS_TYPE":0,"CLASSIFICATION_TYPE":"U","NORAD_CAT_ID":38652,"ELEMENT_SET_NO":999,"REV_AT_EPOCH":4365,"BSTAR":0,"MEAN_MOTION_DOT":1.4e-7,"MEAN_MOTION_DDOT":0},{"OBJECT_NAME":"INTELSAT 20 (IS-20)","OBJECT_ID":"2012-043A","EPOCH":"2026-03-28T16:49:23.580768","MEAN_MOTION":1.00271059,"ECCENTRICITY":0.0002672,"INCLINATION":0.0172,"RA_OF_ASC_NODE":122.4367,"ARG_OF_PERICENTER":39.6775,"MEAN_ANOMALY":344.8266,"EPHEMERIS_TYPE":0,"CLASSIFICATION_TYPE":"U","NORAD_CAT_ID":38740,"ELEMENT_SET_NO":999,"REV_AT_EPOCH":4994,"BSTAR":0,"MEAN_MOTION_DOT":-4.4e-7,"MEAN_MOTION_DDOT":0},{"OBJECT_NAME":"HYLAS 2","OBJECT_ID":"2012-043B","EPOCH":"2026-03-28T19:34:30.959040","MEAN_MOTION":1.00272022,"ECCENTRICITY":0.0002505,"INCLINATION":2.2204,"RA_OF_ASC_NODE":82.035,"ARG_OF_PERICENTER":304.9353,"MEAN_ANOMALY":20.332,"EPHEMERIS_TYPE":0,"CLASSIFICATION_TYPE":"U","NORAD_CAT_ID":38741,"ELEMENT_SET_NO":999,"REV_AT_EPOCH":4996,"BSTAR":0,"MEAN_MOTION_DOT":-2.75e-6,"MEAN_MOTION_DDOT":0},{"OBJECT_NAME":"INTELSAT 21 (IS-21)","OBJECT_ID":"2012-045A","EPOCH":"2026-03-28T17:55:54.704352","MEAN_MOTION":1.00272139,"ECCENTRICITY":0.0001672,"INCLINATION":0.0222,"RA_OF_ASC_NODE":250.6369,"ARG_OF_PERICENTER":110.3486,"MEAN_ANOMALY":36.1395,"EPHEMERIS_TYPE":0,"CLASSIFICATION_TYPE":"U","NORAD_CAT_ID":38749,"ELEMENT_SET_NO":999,"REV_AT_EPOCH":4971,"BSTAR":0,"MEAN_MOTION_DOT":-3.04e-6,"MEAN_MOTION_DDOT":0},{"OBJECT_NAME":"ASTRA 2F","OBJECT_ID":"2012-051A","EPOCH":"2026-03-28T20:03:10.560096","MEAN_MOTION":1.00272306,"ECCENTRICITY":0.000189,"INCLINATION":0.0569,"RA_OF_ASC_NODE":252.2727,"ARG_OF_PERICENTER":31.3617,"MEAN_ANOMALY":231.5707,"EPHEMERIS_TYPE":0,"CLASSIFICATION_TYPE":"U","NORAD_CAT_ID":38778,"ELEMENT_SET_NO":999,"REV_AT_EPOCH":4033,"BSTAR":0,"MEAN_MOTION_DOT":1.3e-6,"MEAN_MOTION_DDOT":0},{"OBJECT_NAME":"GSAT-10","OBJECT_ID":"2012-051B","EPOCH":"2026-03-28T20:18:48.788928","MEAN_MOTION":1.00270494,"ECCENTRICITY":0.0005574,"INCLINATION":0.0114,"RA_OF_ASC_NODE":192.6962,"ARG_OF_PERICENTER":247.7914,"MEAN_ANOMALY":133.4558,"EPHEMERIS_TYPE":0,"CLASSIFICATION_TYPE":"U","NORAD_CAT_ID":38779,"ELEMENT_SET_NO":999,"REV_AT_EPOCH":4929,"BSTAR":0,"MEAN_MOTION_DOT":-1.84e-6,"MEAN_MOTION_DDOT":0},{"OBJECT_NAME":"INTELSAT 23 (IS-23)","OBJECT_ID":"2012-057A","EPOCH":"2026-03-28T19:40:05.275200","MEAN_MOTION":1.0026864,"ECCENTRICITY":6.74e-5,"INCLINATION":0.0216,"RA_OF_ASC_NODE":246.2419,"ARG_OF_PERICENTER":128.7858,"MEAN_ANOMALY":53.1934,"EPHEMERIS_TYPE":0,"CLASSIFICATION_TYPE":"U","NORAD_CAT_ID":38867,"ELEMENT_SET_NO":999,"REV_AT_EPOCH":4914,"BSTAR":0,"MEAN_MOTION_DOT":-3.04e-6,"MEAN_MOTION_DDOT":0},{"OBJECT_NAME":"BEIDOU-2 G6","OBJECT_ID":"2012-059A","EPOCH":"2026-03-28T20:19:11.253792","MEAN_MOTION":1.00272221,"ECCENTRICITY":0.0010505,"INCLINATION":4.2186,"RA_OF_ASC_NODE":74.3635,"ARG_OF_PERICENTER":307.8886,"MEAN_ANOMALY":192.8433,"EPHEMERIS_TYPE":0,"CLASSIFICATION_TYPE":"U","NORAD_CAT_ID":38953,"ELEMENT_SET_NO":999,"REV_AT_EPOCH":4910,"BSTAR":0,"MEAN_MOTION_DOT":-1.92e-6,"MEAN_MOTION_DDOT":0},{"OBJECT_NAME":"LUCH-5B","OBJECT_ID":"2012-061A","EPOCH":"2026-03-28T16:25:03.415584","MEAN_MOTION":1.0027332,"ECCENTRICITY":0.0003249,"INCLINATION":10.3113,"RA_OF_ASC_NODE":50.6629,"ARG_OF_PERICENTER":223.4776,"MEAN_ANOMALY":141.8589,"EPHEMERIS_TYPE":0,"CLASSIFICATION_TYPE":"U","NORAD_CAT_ID":38977,"ELEMENT_SET_NO":999,"REV_AT_EPOCH":4880,"BSTAR":0,"MEAN_MOTION_DOT":-1.5e-6,"MEAN_MOTION_DDOT":0},{"OBJECT_NAME":"YAMAL 300K","OBJECT_ID":"2012-061B","EPOCH":"2026-03-28T01:57:49.145184","MEAN_MOTION":1.00271722,"ECCENTRICITY":8.864e-5,"INCLINATION":0.0098,"RA_OF_ASC_NODE":228.2695,"ARG_OF_PERICENTER":5.8458,"MEAN_ANOMALY":163.7716,"EPHEMERIS_TYPE":0,"CLASSIFICATION_TYPE":"U","NORAD_CAT_ID":38978,"ELEMENT_SET_NO":999,"REV_AT_EPOCH":4881,"BSTAR":0,"MEAN_MOTION_DOT":5.2e-7,"MEAN_MOTION_DDOT":0},{"OBJECT_NAME":"STAR ONE C3","OBJECT_ID":"2012-062A","EPOCH":"2026-03-28T14:25:44.855904","MEAN_MOTION":1.0026842,"ECCENTRICITY":0.0002444,"INCLINATION":0.0177,"RA_OF_ASC_NODE":185.7046,"ARG_OF_PERICENTER":199.3606,"MEAN_ANOMALY":302.3983,"EPHEMERIS_TYPE":0,"CLASSIFICATION_TYPE":"U","NORAD_CAT_ID":38991,"ELEMENT_SET_NO":999,"REV_AT_EPOCH":4895,"BSTAR":0,"MEAN_MOTION_DOT":0,"MEAN_MOTION_DDOT":0},{"OBJECT_NAME":"EUTELSAT 21B","OBJECT_ID":"2012-062B","EPOCH":"2026-03-28T19:37:38.798688","MEAN_MOTION":1.0027017,"ECCENTRICITY":0.0002928,"INCLINATION":0.0693,"RA_OF_ASC_NODE":356.3295,"ARG_OF_PERICENTER":6.435,"MEAN_ANOMALY":139.4657,"EPHEMERIS_TYPE":0,"CLASSIFICATION_TYPE":"U","NORAD_CAT_ID":38992,"ELEMENT_SET_NO":999,"REV_AT_EPOCH":4902,"BSTAR":0,"MEAN_MOTION_DOT":1.1e-6,"MEAN_MOTION_DDOT":0}]
