NIMIQ 6                 
1 38342U 12026A   26087.59800693 -.00000193  00000+0  00000+0 0  9996
2 38342   0.0222  91.0685 0002547 266.2408 312.8672  1.00272292 49606
ZHONGXING-2A            
1 38352U 12028A   26087.85808844 -.00000311  00000+0  00000+0 0  9996
2 38352   1.2467  84.9226 0000654 296.7553 211.7379  1.00269197 50499
INTELSAT 19 (IS-19)     
1 38356U 12030A   26087.77197419  .00000000  00000+0  00000+0 0  9997
2 38356   0.0228 179.3557 0003090 198.9521 251.7976  1.00269418 49644
ECHOSTAR 17             
1 38551U 12035A   26087.59480025 -.00000095  00000+0  00000+0 0  9992
2 38551   0.0188 155.0439 0002032 213.0951 284.8859  1.00271184 50256
METEOSAT-10 (MSG-3)     
1 38552U 12035B   26087.75868764 -.00000023  00000+0  00000+0 0  9992
2 38552   4.4824  61.3529 0002458 284.8080 113.1895  1.00271341 50059
SES-5                   
1 38652U 12036A   26087.84836296  .00000014  00000+0  00000+0 0  9998
2 38652   0.0628 304.7555 0002108  56.5266 135.3475  1.00271932 43653
INTELSAT 20 (IS-20)     
1 38740U 12043A   26087.70096737 -.00000044  00000+0  00000+0 0  9991
2 38740   0.0172 122.4367 0002672  39.6775 344.8266  1.00271059 49947
HYLAS 2                 
1 38741U 12043B   26087.81563610 -.00000275  00000+0  00000+0 0  9999
2 38741   2.2204  82.0350 0002505 304.9353  20.3320  1.00272022 49966
INTELSAT 21 (IS-21)     
1 38749U 12045A   26087.74716093 -.00000304  00000+0  00000+0 0  9999
2 38749   0.0222 250.6369 0001672 110.3486  36.1395  1.00272139 49712
ASTRA 2F                
1 38778U 12051A   26087.83553889  .00000130  00000+0  00000+0 0  9996
2 38778   0.0569 252.2727 0001890  31.3617 231.5707  1.00272306 40337
GSAT-10                 
1 38779U 12051B   26087.84639802 -.00000184  00000+0  00000+0 0  9998
2 38779   0.0114 192.6962 0005574 247.7914 133.4558  1.00270494 49292
INTELSAT 23 (IS-23)     
1 38867U 12057A   26087.81950550 -.00000304  00000+0  00000+0 0  9999
2 38867   0.0216 246.2419 0000674 128.7858  53.1934  1.00268640 49147
BEIDOU-2 G6             
1 38953U 12059A   26087.84665803 -.00000192  00000+0  00000+0 0  9999
2 38953   4.2186  74.3635 0010505 307.8886 192.8433  1.00272221 49101
LUCH-5B                 
1 38977U 12061A   26087.68406731 -.00000150  00000+0  00000+0 0  9997
2 38977  10.3113  50.6629 0003249 223.4776 141.8589  1.00273320 48806
YAMAL 300K              
1 38978U 12061B   26087.08181881  .00000052  00000+0  00000+0 0  9998
2 38978   0.0098 228.2695 0000886   5.8458 163.7716  1.00271722 48814
STAR ONE C3             
1 38991U 12062A   26087.60121361  .00000000  00000+0  00000+0 0  9992
2 38991   0.0177 185.7046 0002444 199.3606 302.3983  1.00268420 48953
EUTELSAT 21B            
1 38992U 12062B   26087.81781017  .00000110  00000+0  00000+0 0  9998
2 38992   0.0693 356.3295 0002928   6.4350 139.4657  1.00270170 49021
